{"fetched_at":"2026-07-18T17:29:47.571Z","source":"https://celestrak.org/NORAD/elements/gp.php?NAME=CENTAURI&FORMAT=JSON","constellation":"myriota","records":[{"OBJECT_NAME":"CENTAURI-1","OBJECT_ID":"2018-099BD","EPOCH":"2026-07-18T02:03:48.825792","CLASSIFICATION_TYPE":"U","MEAN_MOTION":15.16640745,"ECCENTRICITY":0.00132293,"INCLINATION":97.42,"RA_OF_ASC_NODE":250.1446,"ARG_OF_PERICENTER":214.0956,"MEAN_ANOMALY":145.9429,"EPHEMERIS_TYPE":0,"NORAD_CAT_ID":43809,"ELEMENT_SET_NO":999,"REV_AT_EPOCH":41718,"BSTAR":0.00015091737,"MEAN_MOTION_DOT":0.00002891,"MEAN_MOTION_DDOT":0},{"OBJECT_NAME":"CENTAURI-6","OBJECT_ID":"2024-066K","EPOCH":"2026-07-17T21:56:35.318688","CLASSIFICATION_TYPE":"U","MEAN_MOTION":15.06049524,"ECCENTRICITY":0.00016998,"INCLINATION":45.6065,"RA_OF_ASC_NODE":93.9922,"ARG_OF_PERICENTER":254.1906,"MEAN_ANOMALY":105.8791,"EPHEMERIS_TYPE":0,"NORAD_CAT_ID":59451,"ELEMENT_SET_NO":999,"REV_AT_EPOCH":12475,"BSTAR":0.00018858724,"MEAN_MOTION_DOT":0.0000255,"MEAN_MOTION_DDOT":0},{"OBJECT_NAME":"CENTAURI-7","OBJECT_ID":"2025-009DD","EPOCH":"2026-07-18T04:34:46.505856","CLASSIFICATION_TYPE":"U","MEAN_MOTION":14.97983294,"ECCENTRICITY":0.00025805,"INCLINATION":97.7097,"RA_OF_ASC_NODE":279.0745,"ARG_OF_PERICENTER":97.3493,"MEAN_ANOMALY":262.8022,"EPHEMERIS_TYPE":0,"NORAD_CAT_ID":62708,"ELEMENT_SET_NO":999,"REV_AT_EPOCH":8210,"BSTAR":0.00010249354,"MEAN_MOTION_DOT":0.00001151,"MEAN_MOTION_DDOT":0},{"OBJECT_NAME":"CENTAURI-8","OBJECT_ID":"2025-009DK","EPOCH":"2026-07-18T03:40:01.469856","CLASSIFICATION_TYPE":"U","MEAN_MOTION":14.97935164,"ECCENTRICITY":0.00024703,"INCLINATION":97.7036,"RA_OF_ASC_NODE":278.8551,"ARG_OF_PERICENTER":77.0342,"MEAN_ANOMALY":283.1156,"EPHEMERIS_TYPE":0,"NORAD_CAT_ID":62714,"ELEMENT_SET_NO":999,"REV_AT_EPOCH":8211,"BSTAR":0.00013055387,"MEAN_MOTION_DOT":0.00001481,"MEAN_MOTION_DDOT":0}]}
