CENTAURI-1              
1 43809U 18099BD  26199.08598178  .00002891  00000+0  15092-3 0  9993
2 43809  97.4200 250.1446 0013229 214.0956 145.9429 15.16640745417188
CENTAURI-6              
1 59451U 24066K   26198.91429767  .00002550  00000+0  18859-3 0  9998
2 59451  45.6065  93.9922 0001699 254.1906 105.8791 15.06049524124754
CENTAURI-7              
1 62708U 25009DD  26199.19081604  .00001151  00000+0  10249-3 0  9991
2 62708  97.7097 279.0745 0002580  97.3493 262.8022 14.97983294 82107
CENTAURI-8              
1 62714U 25009DK  26199.15279479  .00001481  00000+0  13055-3 0  9997
2 62714  97.7036 278.8551 0002470  77.0342 283.1156 14.97935164 82113
